SL-16 R/B               
1 22566U 93016B   26062.63102351  .00000326  00000+0  19161-3 0  9998
2 22566  71.0057 227.9061 0011368 322.5759  37.4571 14.15305253701310
COSMOS 2242             
1 22626U 93024A   26062.61827210  .00002162  00000+0  18763-3 0  9997
2 22626  82.5156 272.5257 0015601 330.6060  29.4282 14.96519556779481
SL-16 R/B               
1 22803U 93059B   26062.33633810  .00000044  00000+0  45693-4 0  9992
2 22803  70.9919  24.5232 0018810 225.5497 134.4089 14.17232073678631
ARIANE 40 R/B           
1 22830U 93061H   26062.62331457  .00000271  00000+0  11508-3 0  9998
2 22830  98.4930 131.6305 0009647 305.1852  54.8428 14.32857278693230
COSMOS 2278             
1 23087U 94023A   26062.51547821  .00000317  00000+0  19017-3 0  9998
2 23087  71.0542 188.0131 0007643  25.7905 334.3597 14.14375511643932
SL-16 R/B               
1 23088U 94023B   26062.49402748 -.00000094  00000+0 -23975-4 0  9997
2 23088  70.9987  83.8998 0005605 291.6296  68.4229 14.15013435645215
SL-16 R/B               
1 23343U 94074B   26062.64830263  .00000663  00000+0  95484-4 0  9995
2 23343  97.7117  93.7106 0005387 233.8032 239.3935 14.79399863686350
SL-16 R/B               
1 23405U 94077B   26062.26606304 -.00000246  00000+0 -10114-3 0  9997
2 23405  70.9851   6.0016 0003451 221.0572 139.0291 14.15562406615327
ARIANE 40+ R/B          
1 23561U 95021B   26062.64354237  .00000402  00000+0  14203-3 0  9992
2 23561  98.4510 134.2078 0007382 152.6779 329.8219 14.39767422618372
SL-16 R/B               
1 23705U 95058B   26062.62608384 -.00000017  00000+0  15574-4 0  9991
2 23705  71.0210 192.9842 0011015 136.5220 223.6773 14.15492745566999
SL-16 R/B               
1 24298U 96051B   26062.50880158  .00000084  00000+0  72051-4 0  9997
2 24298  70.7595 188.3202 0015637 157.2033 202.9784 14.12413741520778
ORBVIEW 2 (SEASTAR)     
1 24883U 97037A   26062.42350352  .00000436  00000+0  16786-3 0  9994
2 24883  98.8555 226.5696 0003184  84.6018 275.5530 14.35489418507574
