CCSDS_OMM_VERS = 2.0
CREATION_DATE  = 
ORIGINATOR     = 

OBJECT_NAME    = SL-16 R/B
OBJECT_ID      = 1993-016B
CENTER_NAME    = EARTH
REF_FRAME      = TEME
TIME_SYSTEM    = UTC
MEAN_ELEMENT_THEORY = SGP/SGP4

EPOCH          = 2026-03-03T15:08:40.431264
MEAN_MOTION    = 14.15305253
ECCENTRICITY   = .00113689
INCLINATION    = 71.0057
RA_OF_ASC_NODE = 227.9061
ARG_OF_PERICENTER = 322.5759
MEAN_ANOMALY   = 37.4571

EPHEMERIS_TYPE = 0
CLASSIFICATION_TYPE = U
NORAD_CAT_ID   = 22566
ELEMENT_SET_NO = 999
REV_AT_EPOCH   = 70131
BSTAR          = .19161304E-3
MEAN_MOTION_DOT = .326E-5
MEAN_MOTION_DDOT = 0

CCSDS_OMM_VERS = 2.0
CREATION_DATE  = 
ORIGINATOR     = 

OBJECT_NAME    = COSMOS 2242
OBJECT_ID      = 1993-024A
CENTER_NAME    = EARTH
REF_FRAME      = TEME
TIME_SYSTEM    = UTC
MEAN_ELEMENT_THEORY = SGP/SGP4

EPOCH          = 2026-03-03T14:50:18.709440
MEAN_MOTION    = 14.96519556
ECCENTRICITY   = .00156011
INCLINATION    = 82.5156
RA_OF_ASC_NODE = 272.5257
ARG_OF_PERICENTER = 330.6060
MEAN_ANOMALY   = 29.4282

EPHEMERIS_TYPE = 0
CLASSIFICATION_TYPE = U
NORAD_CAT_ID   = 22626
ELEMENT_SET_NO = 999
REV_AT_EPOCH   = 77948
BSTAR          = .18762591E-3
MEAN_MOTION_DOT = .2162E-4
MEAN_MOTION_DDOT = 0

CCSDS_OMM_VERS = 2.0
CREATION_DATE  = 
ORIGINATOR     = 

OBJECT_NAME    = SL-16 R/B
OBJECT_ID      = 1993-059B
CENTER_NAME    = EARTH
REF_FRAME      = TEME
TIME_SYSTEM    = UTC
MEAN_ELEMENT_THEORY = SGP/SGP4

EPOCH          = 2026-03-03T08:04:19.611840
MEAN_MOTION    = 14.17232073
ECCENTRICITY   = .00188106
INCLINATION    = 70.9919
RA_OF_ASC_NODE = 24.5232
ARG_OF_PERICENTER = 225.5497
MEAN_ANOMALY   = 134.4089

EPHEMERIS_TYPE = 0
CLASSIFICATION_TYPE = U
NORAD_CAT_ID   = 22803
ELEMENT_SET_NO = 999
REV_AT_EPOCH   = 67863
BSTAR          = .45693496E-4
MEAN_MOTION_DOT = .44E-6
MEAN_MOTION_DDOT = 0

CCSDS_OMM_VERS = 2.0
CREATION_DATE  = 
ORIGINATOR     = 

OBJECT_NAME    = ARIANE 40 R/B
OBJECT_ID      = 1993-061H
CENTER_NAME    = EARTH
REF_FRAME      = TEME
TIME_SYSTEM    = UTC
MEAN_ELEMENT_THEORY = SGP/SGP4

EPOCH          = 2026-03-03T14:57:34.378848
MEAN_MOTION    = 14.32857278
ECCENTRICITY   = .00096478
INCLINATION    = 98.4930
RA_OF_ASC_NODE = 131.6305
ARG_OF_PERICENTER = 305.1852
MEAN_ANOMALY   = 54.8428

EPHEMERIS_TYPE = 0
CLASSIFICATION_TYPE = U
NORAD_CAT_ID   = 22830
ELEMENT_SET_NO = 999
REV_AT_EPOCH   = 69323
BSTAR          = .11507814E-3
MEAN_MOTION_DOT = .271E-5
MEAN_MOTION_DDOT = 0

CCSDS_OMM_VERS = 2.0
CREATION_DATE  = 
ORIGINATOR     = 

OBJECT_NAME    = COSMOS 2278
OBJECT_ID      = 1994-023A
CENTER_NAME    = EARTH
REF_FRAME      = TEME
TIME_SYSTEM    = UTC
MEAN_ELEMENT_THEORY = SGP/SGP4

EPOCH          = 2026-03-03T12:22:17.317344
MEAN_MOTION    = 14.14375511
ECCENTRICITY   = .00076438
INCLINATION    = 71.0542
RA_OF_ASC_NODE = 188.0131
ARG_OF_PERICENTER = 25.7905
MEAN_ANOMALY   = 334.3597

EPHEMERIS_TYPE = 0
CLASSIFICATION_TYPE = U
NORAD_CAT_ID   = 23087
ELEMENT_SET_NO = 999
REV_AT_EPOCH   = 64393
BSTAR          = .19017298E-3
MEAN_MOTION_DOT = .317E-5
MEAN_MOTION_DDOT = 0

CCSDS_OMM_VERS = 2.0
CREATION_DATE  = 
ORIGINATOR     = 

OBJECT_NAME    = SL-16 R/B
OBJECT_ID      = 1994-023B
CENTER_NAME    = EARTH
REF_FRAME      = TEME
TIME_SYSTEM    = UTC
MEAN_ELEMENT_THEORY = SGP/SGP4

EPOCH          = 2026-03-03T11:51:23.974272
MEAN_MOTION    = 14.15013435
ECCENTRICITY   = .00056058
INCLINATION    = 70.9987
RA_OF_ASC_NODE = 83.8998
ARG_OF_PERICENTER = 291.6296
MEAN_ANOMALY   = 68.4229

EPHEMERIS_TYPE = 0
CLASSIFICATION_TYPE = U
NORAD_CAT_ID   = 23088
ELEMENT_SET_NO = 999
REV_AT_EPOCH   = 64521
BSTAR          = -.23975063E-4
MEAN_MOTION_DOT = -.94E-6
MEAN_MOTION_DDOT = 0

CCSDS_OMM_VERS = 2.0
CREATION_DATE  = 
ORIGINATOR     = 

OBJECT_NAME    = SL-16 R/B
OBJECT_ID      = 1994-074B
CENTER_NAME    = EARTH
REF_FRAME      = TEME
TIME_SYSTEM    = UTC
MEAN_ELEMENT_THEORY = SGP/SGP4

EPOCH          = 2026-03-03T15:33:33.347232
MEAN_MOTION    = 14.79399863
ECCENTRICITY   = .00053876
INCLINATION    = 97.7117
RA_OF_ASC_NODE = 93.7106
ARG_OF_PERICENTER = 233.8032
MEAN_ANOMALY   = 239.3935

EPHEMERIS_TYPE = 0
CLASSIFICATION_TYPE = U
NORAD_CAT_ID   = 23343
ELEMENT_SET_NO = 999
REV_AT_EPOCH   = 68635
BSTAR          = .95483927E-4
MEAN_MOTION_DOT = .663E-5
MEAN_MOTION_DDOT = 0

CCSDS_OMM_VERS = 2.0
CREATION_DATE  = 
ORIGINATOR     = 

OBJECT_NAME    = SL-16 R/B
OBJECT_ID      = 1994-077B
CENTER_NAME    = EARTH
REF_FRAME      = TEME
TIME_SYSTEM    = UTC
MEAN_ELEMENT_THEORY = SGP/SGP4

EPOCH          = 2026-03-03T06:23:07.846656
MEAN_MOTION    = 14.15562406
ECCENTRICITY   = .00034512
INCLINATION    = 70.9851
RA_OF_ASC_NODE = 6.0016
ARG_OF_PERICENTER = 221.0572
MEAN_ANOMALY   = 139.0291

EPHEMERIS_TYPE = 0
CLASSIFICATION_TYPE = U
NORAD_CAT_ID   = 23405
ELEMENT_SET_NO = 999
REV_AT_EPOCH   = 61532
BSTAR          = -.10114473E-3
MEAN_MOTION_DOT = -.246E-5
MEAN_MOTION_DDOT = 0

CCSDS_OMM_VERS = 2.0
CREATION_DATE  = 
ORIGINATOR     = 

OBJECT_NAME    = ARIANE 40+ R/B
OBJECT_ID      = 1995-021B
CENTER_NAME    = EARTH
REF_FRAME      = TEME
TIME_SYSTEM    = UTC
MEAN_ELEMENT_THEORY = SGP/SGP4

EPOCH          = 2026-03-03T15:26:42.060768
MEAN_MOTION    = 14.39767422
ECCENTRICITY   = .00073821
INCLINATION    = 98.4510
RA_OF_ASC_NODE = 134.2078
ARG_OF_PERICENTER = 152.6779
MEAN_ANOMALY   = 329.8219

EPHEMERIS_TYPE = 0
CLASSIFICATION_TYPE = U
NORAD_CAT_ID   = 23561
ELEMENT_SET_NO = 999
REV_AT_EPOCH   = 61837
BSTAR          = .14203444E-3
MEAN_MOTION_DOT = .402E-5
MEAN_MOTION_DDOT = 0

CCSDS_OMM_VERS = 2.0
CREATION_DATE  = 
ORIGINATOR     = 

OBJECT_NAME    = SL-16 R/B
OBJECT_ID      = 1995-058B
CENTER_NAME    = EARTH
REF_FRAME      = TEME
TIME_SYSTEM    = UTC
MEAN_ELEMENT_THEORY = SGP/SGP4

EPOCH          = 2026-03-03T15:01:33.643776
MEAN_MOTION    = 14.15492745
ECCENTRICITY   = .00110156
INCLINATION    = 71.0210
RA_OF_ASC_NODE = 192.9842
ARG_OF_PERICENTER = 136.5220
MEAN_ANOMALY   = 223.6773

EPHEMERIS_TYPE = 0
CLASSIFICATION_TYPE = U
NORAD_CAT_ID   = 23705
ELEMENT_SET_NO = 999
REV_AT_EPOCH   = 56699
BSTAR          = .15573968E-4
MEAN_MOTION_DOT = -.17E-6
MEAN_MOTION_DDOT = 0

CCSDS_OMM_VERS = 2.0
CREATION_DATE  = 
ORIGINATOR     = 

OBJECT_NAME    = SL-16 R/B
OBJECT_ID      = 1996-051B
CENTER_NAME    = EARTH
REF_FRAME      = TEME
TIME_SYSTEM    = UTC
MEAN_ELEMENT_THEORY = SGP/SGP4

EPOCH          = 2026-03-03T12:12:40.456512
MEAN_MOTION    = 14.12413741
ECCENTRICITY   = .00156371
INCLINATION    = 70.7595
RA_OF_ASC_NODE = 188.3202
ARG_OF_PERICENTER = 157.2033
MEAN_ANOMALY   = 202.9784

EPHEMERIS_TYPE = 0
CLASSIFICATION_TYPE = U
NORAD_CAT_ID   = 24298
ELEMENT_SET_NO = 999
REV_AT_EPOCH   = 52077
BSTAR          = .72051004E-4
MEAN_MOTION_DOT = .84E-6
MEAN_MOTION_DDOT = 0

CCSDS_OMM_VERS = 2.0
CREATION_DATE  = 
ORIGINATOR     = 

OBJECT_NAME    = ORBVIEW 2 (SEASTAR)
OBJECT_ID      = 1997-037A
CENTER_NAME    = EARTH
REF_FRAME      = TEME
TIME_SYSTEM    = UTC
MEAN_ELEMENT_THEORY = SGP/SGP4

EPOCH          = 2026-03-03T10:09:50.704128
MEAN_MOTION    = 14.35489418
ECCENTRICITY   = .00031846
INCLINATION    = 98.8555
RA_OF_ASC_NODE = 226.5696
ARG_OF_PERICENTER = 84.6018
MEAN_ANOMALY   = 275.5530

EPHEMERIS_TYPE = 0
CLASSIFICATION_TYPE = U
NORAD_CAT_ID   = 24883
ELEMENT_SET_NO = 999
REV_AT_EPOCH   = 50757
BSTAR          = .16786389E-3
MEAN_MOTION_DOT = .436E-5
MEAN_MOTION_DDOT = 0

